satname,norad_id,inclination_deg,eccentricity,mean_motion_rev_per_day,perigee_km,apogee_km,l1,l2
STARLINK-1266,45383,53.0537,0.0001358,15.06407214,546.2489888238588,548.1299074871777,1 45383U 20019Z   25322.88352022  .00011052  00000+0  75956-3 0  9992,2 45383  53.0537 284.0482 0001358  90.6118 269.5027 15.06407214313309
STARLINK-1267,45384,53.0549,0.0001554,15.06421034,546.070903359866,548.2232816558171,1 45384U 20019AA  25322.20535626  .00005985  00000+0  42008-3 0  9992,2 45384  53.0549 287.7480 0001554  96.5631 263.5535 15.06421034313195
STARLINK-1272,45386,53.053,0.0006691,15.36810684,450.9751287282197,460.1199653890935,1 45386U 20019AC  25322.91671295  .00103260  00000+0  27994-2 0  9996,2 45386  53.0530 278.0438 0006691  71.5536 269.9897 15.36810684  5787
STARLINK-1274,45387,53.0343,0.0003823,15.31420665,468.9541608338477,474.191448950668,1 45387U 20019AD  25322.87771769  .00062675  00000+0  20317-2 0  9995,2 45387  53.0343 266.2264 0003823  28.0437 332.0768 15.31420665313554
STARLINK-1280,45388,53.0539,0.0006896,15.42553884,433.8741915397459,443.27580072481123,1 45388U 20019AE  25322.91671295  .00135030  00000+0  30160-2 0  9997,2 45388  53.0539 296.7910 0006896  58.4850 249.0879 15.42553884  5894
STARLINK-1283,45389,53.0548,0.0008219,15.32971516,461.326313434095,472.5782712128175,1 45389U 20019AF  25322.86824887  .00093518  00000+0  28686-2 0  9993,2 45389  53.0548 277.3327 0008219  66.5134 293.6729 15.32971516313401
STARLINK-1284,45390,53.0554,0.0001414,15.06421895,546.1652189319575,548.1236885270719,1 45390U 20019AG  25322.22370389  .00006240  00000+0  43718-3 0  9998,2 45390  53.0554 287.0115 0001414  86.0095 274.1055 15.06421895313201
STARLINK-1292,45394,53.0287,0.0003998,16.42645404,156.16135499789198,161.38826968303965,1 45394U 20019AL  25322.79281146  .09431394  12404-4  49048-3 0  9995,2 45394  53.0287 221.0229 0003998 242.2610 117.8032 16.42645404313911
STARLINK-1297,45395,53.0549,0.0001561,15.06402936,546.1215140305103,548.2836050409978,1 45395U 20019AM  25322.85769128  .00000086  00000+0  24705-4 0  9993,2 45395  53.0549 284.1631 0001561  93.2341 266.8826 15.06402936312486
STARLINK-1307,45397,53.0547,0.0001649,15.06429113,545.9803569594278,548.2643074871949,1 45397U 20019AP  25322.18685433  .00008162  00000+0  56573-3 0  9997,2 45397  53.0547 287.1733 0001649  88.7322 271.3856 15.06429113313028
STARLINK-1255,45399,53.048,0.0005934,15.32986941,462.8445263944568,470.9682238720652,1 45399U 20019AR  25322.87621287  .00082439  00000+0  25337-2 0  9994,2 45399  53.0480 268.3701 0005934  78.2191 281.9475 15.32986941313335
STARLINK-1260,45404,53.0536,0.0001351,15.06418624,546.21887176993,548.0900855274613,1 45404U 20019AW  25322.18776310  .00012491  00000+0  85556-3 0  9994,2 45404  53.0536 277.1669 0001351 112.5564 247.5568 15.06418624313059
STARLINK-1263,45405,53.0559,0.0001779,15.06397049,545.9885812255634,548.4526234604764,1 45405U 20019AX  25322.17302336  .00004049  00000+0  29059-3 0  9993,2 45405  53.0559 277.2388 0001779  94.0732 266.0460 15.06397049313053
STARLINK-1265,45406,53.0544,0.0001202,15.06390518,546.4081886652448,548.0730494448662,1 45406U 20019AY  25322.84387956 -.00002564  00000+0 -15334-3 0  9992,2 45406  53.0544 274.2248 0001202  87.0974 273.0153 15.06390518313153
STARLINK-1278,45408,53.0539,0.0005921,15.35605614,455.0739047514853,463.1705871505401,1 45408U 20019BA  25322.26751226  .00100050  00000+0  28212-2 0  9990,2 45408  53.0539 301.1336 0005921  49.0055 311.1458 15.35605614312730
STARLINK-1296,45412,53.0545,0.0001202,15.0640124,546.3753310796237,548.0401839593324,1 45412U 20019BE  25322.84755294 -.00000718  00000+0 -29323-4 0  9996,2 45412  53.0545 274.2061 0001202  90.7835 269.3292 15.06401240313158
STARLINK-1298,45413,53.048,0.0008703,15.55328862,395.2967823313311,407.0968908072646,1 45413U 20019BF  25322.06524001  .00040603  00000+0  59089-3 0  9997,2 45413  53.0480 247.8784 0008703  24.9308 335.2121 15.55328862313552
STARLINK-1309,45414,53.0548,0.0001432,15.06385305,546.264879999937,548.2483127259347,1 45414U 20019BG  25322.86230834  .00006520  00000+0  45639-3 0  9990,2 45414  53.0548 274.1431 0001432  86.8055 273.3098 15.06385305313149
STARLINK-1316,45415,53.0563,0.0001558,15.06392897,546.1543549987446,548.312300392854,1 45415U 20019BH  25322.15828788 -.00001100  00000+0 -54969-4 0  9992,2 45415  53.0563 277.3015 0001558  95.5710 264.5457 15.06392897313071
STARLINK-1318,45416,53.0502,0.0005869,15.62893458,375.3380052016091,383.2698893855422,1 45416U 20019BJ  25322.48103983  .00060443  00000+0  65701-3 0  9990,2 45416  53.0502 236.4399 0005869  97.4982 262.6698 15.62893458313669
STARLINK-1286,45417,53.0541,0.0004005,15.37993516,449.3078676804171,454.77884214470305,1 45417U 20019BK  25322.21472051  .00091297  00000+0  23881-2 0  9990,2 45417  53.0541 301.6240 0004005  56.5622 303.5763 15.37993516312992
STARLINK-1308,45419,53.0535,0.0001126,15.06418021,546.3765386907953,547.9361147479731,1 45419U 20019BM  25322.19238675  .00005323  00000+0  37581-3 0  9999,2 45419  53.0535 307.1490 0001126  87.7286 272.3832 15.06418021312661
STARLINK-1329,45531,53.0546,0.0001361,15.06429323,546.1791609168413,548.0642163318844,1 45531U 20025A   25322.75814949  .00004109  00000+0  29434-3 0  9996,2 45531  53.0546 244.6085 0001361  97.4412 262.6732 15.06429323308374
STARLINK-1338,45532,53.055,0.0001373,15.06383309,546.3118565409541,548.2135713023972,1 45532U 20025B   25322.83557977 -.00011002  00000+0 -72117-3 0  9999,2 45532  53.0550 244.2603 0001373 102.5769 257.5373 15.06383309308386
STARLINK-1350,45535,53.0724,0.0002344,15.32934401,465.4582647035195,468.6672943601643,1 45535U 20025E   25322.67928626  .00011381  00000+0  36375-3 0  9991,2 45535  53.0724 193.2327 0002344  92.7860 267.3409 15.32934401309114
STARLINK-1362,45538,53.0543,0.0001623,15.06404711,546.0731377118291,548.3211011669982,1 45538U 20025H   25322.80142439  .00002131  00000+0  16193-3 0  9998,2 45538  53.0543 244.1319 0001623 106.2826 253.8341 15.06404711308385
STARLINK-1368,45540,53.0549,0.0002077,15.06405864,545.7551945185023,548.6319768437952,1 45540U 20025K   25322.80609036  .00001759  00000+0  13698-3 0  9994,2 45540  53.0549 244.3927 0002077  99.2081 260.9143 15.06405864308377
STARLINK-1371,45542,53.0542,0.0002004,15.06381406,545.8806951849301,548.6563977279502,1 45542U 20025M   25322.77660962  .00000250  00000+0  35736-4 0  9990,2 45542  53.0542 244.5236 0002004  82.7437 277.3780 15.06381406308373
STARLINK-1372,45543,53.0549,0.0001484,15.06389063,546.217351770425,548.2728051713166,1 45543U 20025N   25322.81346970 -.00007820  00000+0 -50677-3 0  9998,2 45543  53.0549 244.3607 0001484  85.4360 274.6798 15.06389063307473
STARLINK-1373,45544,53.0534,0.0001196,15.0638871,546.4178845523493,548.0744362043124,1 45544U 20025P   25322.83189574 -.00005107  00000+0 -32431-3 0  9990,2 45544  53.0534 244.2766 0001196  97.5401 262.5724 15.06388710308387
STARLINK-1294,45551,53.045,0.0006445,15.6321892,374.0114162849186,382.7205486293051,1 45551U 20025W   25322.60964411  .00073841  00000+0  78979-3 0  9999,2 45551  53.0450 171.3071 0006445 117.4465 242.7205 15.63218920309399
STARLINK-1325,45554,53.0514,0.0003378,15.68233132,361.6788185337364,366.23377676562905,1 45554U 20025Z   25322.91671295  .00211157  00000+0  18100-2 0  9994,2 45554  53.0514 162.3733 0003378 244.2776  53.4567 15.68233132  5998
STARLINK-1327,45555,53.0538,0.0001636,15.06406939,546.0573074395079,548.323274529118,1 45555U 20025AA  25322.73790863  .00007290  00000+0  50768-3 0  9996,2 45555  53.0538 224.6995 0001636  74.7711 285.3458 15.06406939308649
STARLINK-1356,45564,53.0538,0.0002039,15.06394014,545.8178219151159,548.6419865386597,1 45564U 20025AK  25322.74159198  .00000568  00000+0  57031-4 0  9999,2 45564  53.0538 224.6793 0002039 112.4093 247.7112 15.06394014308645
STARLINK-1357,45565,53.0601,0.0009432,15.35151933,454.01907573581684,466.9194225642141,1 45565U 20025AL  25322.70147979  .00056754  00000+0  16365-2 0  9991,2 45565  53.0601 206.4069 0009432  74.4805 285.7237 15.35151933308905
STARLINK-1361,45567,53.0554,0.0001839,15.06386929,545.9780399933552,548.525197927408,1 45567U 20025AN  25322.76001571 -.00005707  00000+0 -36462-3 0  9991,2 45567  53.0554 224.5978 0001839  99.6850 260.4347 15.06386929308653
STARLINK-1363,45568,53.0537,0.0005872,15.44483278,428.8973417163079,436.8962197884239,1 45568U 20025AP  25322.03618513  .00071621  00000+0  15158-2 0  9996,2 45568  53.0537 220.9592 0005872 119.3701 240.7892 15.44483278308634
STARLINK-1366,45569,53.0521,0.0004979,15.42563752,435.15189802158693,441.9399508777542,1 45569U 20025AQ  25322.72676235  .00021182  00000+0  48810-3 0  9997,2 45569  53.0521 217.3182 0004979 116.9396 243.2118 15.42563752308748
STARLINK-1376,45570,53.0566,0.0001685,15.06401819,546.03906267824,548.372903263501,1 45570U 20025AR  25322.75634632 -.00000749  00000+0 -31370-4 0  9999,2 45570  53.0566 224.6229 0001685  84.6380 275.4802 15.06401819308648
STARLINK-1320,45572,53.0549,0.0009952,15.45035144,424.4980837780022,438.051537045445,1 45572U 20025AT  25322.58488190  .00024343  00000+0  51404-3 0  9991,2 45572  53.0549 163.9381 0009952  84.6428 275.5713 15.45035144309508
STARLINK-1321,45573,53.0574,0.0002099,15.06389214,545.7909780709269,548.6982532731854,1 45573U 20025AU  25322.67617020  .00001437  00000+0  11539-3 0  9992,2 45573  53.0574 214.9792 0002099  97.2060 262.9168 15.06389214308473
STARLINK-1328,45576,53.0475,0.0009846,15.75212606,337.4076124472176,350.64489632775803,1 45576U 20025AX  25322.91671295  .00143839  00000+0  92518-3 0  9995,2 45576  53.0475 181.6013 0009846 107.5699   0.7556 15.75212606  6012
STARLINK-1331,45578,53.0539,0.0001533,15.06382391,546.2038633053771,548.3271917203137,1 45578U 20025AZ  25322.72040064  .00003667  00000+0  26509-3 0  9991,2 45578  53.0539 214.7795 0001533  90.7822 269.3343 15.06382391308796
